[{"OBJECT_NAME":"POLYITAN-1","OBJECT_ID":"2014-033AJ","EPOCH":"2026-03-09T22:27:50.258304","MEAN_MOTION":15.29568085,"ECCENTRICITY":0.00093607,"INCLINATION":98.1053,"RA_OF_ASC_NODE":86.0432,"ARG_OF_PERICENTER":127.248,"MEAN_ANOMALY":232.9614,"EPHEMERIS_TYPE":0,"CLASSIFICATION_TYPE":"U","NORAD_CAT_ID":40042,"ELEMENT_SET_NO":999,"REV_AT_EPOCH":63840,"BSTAR":0.00083772474,"MEAN_MOTION_DOT":0.00024003,"MEAN_MOTION_DDOT":0},{"OBJECT_NAME":"STARLINK-33740","OBJECT_ID":"2025-069U","EPOCH":"2026-03-09T11:37:40.148544","MEAN_MOTION":15.3019038,"ECCENTRICITY":0.00013129,"INCLINATION":53.1576,"RA_OF_ASC_NODE":143.4009,"ARG_OF_PERICENTER":79.0729,"MEAN_ANOMALY":281.042,"EPHEMERIS_TYPE":0,"CLASSIFICATION_TYPE":"U","NORAD_CAT_ID":63451,"ELEMENT_SET_NO":999,"REV_AT_EPOCH":5326,"BSTAR":0.00098965169,"MEAN_MOTION_DOT":0.00029057,"MEAN_MOTION_DDOT":0}]
